{
"type": "FeatureCollection",
"name": "Fruit trees",
"crs": { "type": "name", "properties": { "name": "urn:ogc:def:crs:EPSG::3857" } },
"features": [
{ "type": "Feature", "properties": { "fid": 1, "code": "P4", "type": "Pear", "variety": "Thorn", "accuracy": "good", "notes": "Perry pear", "var_label": "Thorn", "rhs_link": "https://www.rhs.org.uk/Plants/71155/i-Pyrus-communis-i-Thorn-(Perry)/Details", "auxiliary_storage_labeling_positionx": null, "auxiliary_storage_labeling_positiony": null, "crown_radius": 1.0 }, "geometry": { "type": "Point", "coordinates": [ -289868.396688686101697, 6705847.692928871139884 ] } },
{ "type": "Feature", "properties": { "fid": 2, "code": "A1", "type": "Apple", "variety": "Worcester Pearmain", "accuracy": "good", "notes": "Variety determined by genotyping by Bristol University Nov 2020 (Previously thought to be Scarlet Pimpernel)", "var_label": "Worcester Pearmain", "rhs_link": "https://www.rhs.org.uk/Plants/65808/i-Malus-domestica-i-Worcester-Pearmain-(D)/Details", "auxiliary_storage_labeling_positionx": null, "auxiliary_storage_labeling_positiony": null, "crown_radius": 1.2 }, "geometry": { "type": "Point", "coordinates": [ -289855.802103727473877, 6705841.676738979294896 ] } },
{ "type": "Feature", "properties": { "fid": 3, "code": "A2", "type": "Apple", "variety": "Golden Noble", "accuracy": "good", "notes": "Variety confirmed by genotyping by Bristol University June 2020", "var_label": "Golden Noble", "rhs_link": "https://www.rhs.org.uk/Plants/50346/i-Malus-domestica-i-Golden-Noble-(C)/Details", "auxiliary_storage_labeling_positionx": null, "auxiliary_storage_labeling_positiony": null, "crown_radius": 1.5 }, "geometry": { "type": "Point", "coordinates": [ -289867.686301264795475, 6705838.226939342916012 ] } },
{ "type": "Feature", "properties": { "fid": 4, "code": "P2", "type": "Pear", "variety": "Jargonelle", "accuracy": "good", "notes": null, "var_label": "Jargonelle", "rhs_link": "https://www.rhs.org.uk/Plants/65237/i-Pyrus-communis-i-Jargonelle-(D)/Details", "auxiliary_storage_labeling_positionx": null, "auxiliary_storage_labeling_positiony": null, "crown_radius": 1.4 }, "geometry": { "type": "Point", "coordinates": [ -289870.994479894114193, 6705831.576994498260319 ] } },
{ "type": "Feature", "properties": { "fid": 5, "code": "A3", "type": "Apple", "variety": "Court of Wick", "accuracy": "good", "notes": "Variety confirmed by genotyping by Bristol University June 2020", "var_label": "Court of Wick", "rhs_link": "https://www.rhs.org.uk/Plants/46442/Malus-domestica-Court-of-Wick-(D)/Details", "auxiliary_storage_labeling_positionx": null, "auxiliary_storage_labeling_positiony": null, "crown_radius": 1.5 }, "geometry": { "type": "Point", "coordinates": [ -289870.514317653723992, 6705826.324400009587407 ] } },
{ "type": "Feature", "properties": { "fid": 6, "code": "A4", "type": "Apple", "variety": "Orleans Reinette", "accuracy": "good", "notes": "Variety determined by genotyping by Bristol University Nov 2020 (Previously thought to be Peasgood Nonsuch)", "var_label": "Orleans Reinette", "rhs_link": "https://www.rhs.org.uk/Plants/72343/i-Malus-domestica-i-Orleans-Reinette-(D)/Details", "auxiliary_storage_labeling_positionx": null, "auxiliary_storage_labeling_positiony": null, "crown_radius": 1.0 }, "geometry": { "type": "Point", "coordinates": [ -289880.41990852082381, 6705809.495019869878888 ] } },
{ "type": "Feature", "properties": { "fid": 7, "code": "Pm3", "type": "Plum", "variety": "Pershore", "accuracy": "good", "notes": null, "var_label": null, "rhs_link": null, "auxiliary_storage_labeling_positionx": null, "auxiliary_storage_labeling_positiony": null, "crown_radius": 1.0 }, "geometry": { "type": "Point", "coordinates": [ -289887.56281913240673, 6705844.229899561032653 ] } },
{ "type": "Feature", "properties": { "fid": 8, "code": "Pm2", "type": "Plum", "variety": "Pershore (dead)", "accuracy": "good", "notes": null, "var_label": "(dead)", "rhs_link": null, "auxiliary_storage_labeling_positionx": null, "auxiliary_storage_labeling_positiony": null, "crown_radius": 1.5 }, "geometry": { "type": "Point", "coordinates": [ -289881.972020713612437, 6705841.482634828425944 ] } },
{ "type": "Feature", "properties": { "fid": 9, "code": "Pm1", "type": "Plum", "variety": null, "accuracy": "good", "notes": null, "var_label": null, "rhs_link": null, "auxiliary_storage_labeling_positionx": null, "auxiliary_storage_labeling_positiony": null, "crown_radius": 1.0 }, "geometry": { "type": "Point", "coordinates": [ -289882.175709542818367, 6705827.35115447640419 ] } },
{ "type": "Feature", "properties": { "fid": 10, "code": "Pm11", "type": "Plum", "variety": "Pershore", "accuracy": "good", "notes": null, "var_label": null, "rhs_link": null, "auxiliary_storage_labeling_positionx": null, "auxiliary_storage_labeling_positiony": null, "crown_radius": 1.0 }, "geometry": { "type": "Point", "coordinates": [ -289887.725491196673829, 6705829.876258274540305 ] } },
{ "type": "Feature", "properties": { "fid": 11, "code": "A5", "type": "Apple", "variety": "Emneth Early", "accuracy": "good", "notes": "AKA Early Victoria. Variety determined by genotyping by Bristol University June 2020 (Previously thought to be Lord Derby)", "var_label": "Emneth Early", "rhs_link": "https://www.rhs.org.uk/Plants/65344/Malus-domestica-Emneth-Early-(C)/Details", "auxiliary_storage_labeling_positionx": null, "auxiliary_storage_labeling_positiony": null, "crown_radius": 1.0 }, "geometry": { "type": "Point", "coordinates": [ -289877.214031848823652, 6705811.78153435792774 ] } },
{ "type": "Feature", "properties": { "fid": 12, "code": "A6", "type": "Apple", "variety": "D'Arcy Spice", "accuracy": "good", "notes": "Variety confirmed by genotyping by Bristol University June 2020", "var_label": "D'Arcy Spice", "rhs_link": "https://www.rhs.org.uk/Plants/87347/i-Malus-domestica-i-D-Arcy-Spice-(D)/Details", "auxiliary_storage_labeling_positionx": null, "auxiliary_storage_labeling_positiony": null, "crown_radius": 1.0 }, "geometry": { "type": "Point", "coordinates": [ -289873.008758280891925, 6705816.220621526241302 ] } },
{ "type": "Feature", "properties": { "fid": 13, "code": "A7", "type": "Apple", "variety": "Pitmaston Pine Apple", "accuracy": "good", "notes": "Variety confirmed by genotyping by Bristol University June 2020", "var_label": "Pitmaston Pine Apple", "rhs_link": "https://www.rhs.org.uk/Plants/60992/i-Malus-domestica-i-Pitmaston-Pine-Apple-(D)/Details", "auxiliary_storage_labeling_positionx": null, "auxiliary_storage_labeling_positiony": null, "crown_radius": 1.3 }, "geometry": { "type": "Point", "coordinates": [ -289866.995029323850758, 6705820.278698143549263 ] } },
{ "type": "Feature", "properties": { "fid": 14, "code": "A8", "type": "Apple", "variety": "Tom Putt", "accuracy": "good", "notes": "AKA \"Sidney Strake\". Variety confirmed by genotyping by Bristol University Nov 2020", "var_label": "Tom Putt", "rhs_link": "https://www.rhs.org.uk/Plants/72956/i-Malus-domestica-i-Tom-Putt-(C)/Details", "auxiliary_storage_labeling_positionx": null, "auxiliary_storage_labeling_positiony": null, "crown_radius": 2.0 }, "geometry": { "type": "Point", "coordinates": [ -289858.015568600327242, 6705816.163917797617614 ] } },
{ "type": "Feature", "properties": { "fid": 15, "code": "A9", "type": "Apple", "variety": "Frederick(?)", "accuracy": "good", "notes": "Genotyping by Bristol University in Nov 2020 did not match anything on their database and certainly not \"Adams Pearmain\" which we previously thought it was.", "var_label": "Frederick(?)", "rhs_link": "https://www.rhs.org.uk/Plants/56026/Malus-domestica-Frederick-(Cider)/Details", "auxiliary_storage_labeling_positionx": null, "auxiliary_storage_labeling_positiony": null, "crown_radius": 1.5 }, "geometry": { "type": "Point", "coordinates": [ -289861.639658027444966, 6705801.056674669496715 ] } },
{ "type": "Feature", "properties": { "fid": 16, "code": "A10", "type": "Apple", "variety": "Bramley Seedling", "accuracy": "good", "notes": "Variety determined by genotyping by Bristol University Nov 2020 (Previously thought to be Early Victoria)", "var_label": "Bramley Seedling", "rhs_link": "https://www.rhs.org.uk/Plants/80069/i-Malus-domestica-i-Bramley-s-Seedling-(C)/Details", "auxiliary_storage_labeling_positionx": null, "auxiliary_storage_labeling_positiony": null, "crown_radius": 1.5 }, "geometry": { "type": "Point", "coordinates": [ -289871.10195197025314, 6705788.104186153039336 ] } },
{ "type": "Feature", "properties": { "fid": 17, "code": "A11", "type": "Apple", "variety": "Orleans Reinette M26", "accuracy": "good", "notes": "Variety confirmed by genotyping by Bristol University June 2020", "var_label": "Orleans Reinette", "rhs_link": "https://www.rhs.org.uk/Plants/72343/i-Malus-domestica-i-Orleans-Reinette-(D)/Details", "auxiliary_storage_labeling_positionx": null, "auxiliary_storage_labeling_positiony": null, "crown_radius": 1.4 }, "geometry": { "type": "Point", "coordinates": [ -289863.141884004871827, 6705817.949434741400182 ] } },
{ "type": "Feature", "properties": { "fid": 18, "code": "A12", "type": "Apple", "variety": "Egremont Russet", "accuracy": "good", "notes": "Variety confirmed by genotyping by Bristol University June 2020", "var_label": "Egremont Russet", "rhs_link": "https://www.rhs.org.uk/Plants/49442/i-Malus-domestica-i-Egremont-Russet-(D)/Details", "auxiliary_storage_labeling_positionx": null, "auxiliary_storage_labeling_positiony": null, "crown_radius": 1.0 }, "geometry": { "type": "Point", "coordinates": [ -289857.782962496508844, 6705824.080817271955311 ] } },
{ "type": "Feature", "properties": { "fid": 19, "code": "A13", "type": "Apple", "variety": "Ashmeads Kernel M26", "accuracy": "good", "notes": "Variety confirmed by genotyping by Bristol University June 2020", "var_label": "Ashmeads Kernel", "rhs_link": "https://www.rhs.org.uk/Plants/71057/i-Malus-domestica-i-Ashmead-s-Kernel-(D)/Details", "auxiliary_storage_labeling_positionx": null, "auxiliary_storage_labeling_positiony": null, "crown_radius": 1.0 }, "geometry": { "type": "Point", "coordinates": [ -289865.44423201616155, 6705825.392825668677688 ] } },
{ "type": "Feature", "properties": { "fid": 20, "code": "A14", "type": "Apple", "variety": "Blenheim Orange", "accuracy": "good", "notes": "AKA \"Aldenham Blenheim\". Variety determined by genotyping by Bristol University Nov 2020 (Original nursery label reads Pippin M27, but clearly wrong)", "var_label": "Blenheim Orange", "rhs_link": "https://www.rhs.org.uk/Plants/76430/i-Malus-domestica-i-Blenheim-Orange-(C-D)/Details", "auxiliary_storage_labeling_positionx": null, "auxiliary_storage_labeling_positiony": null, "crown_radius": 0.5 }, "geometry": { "type": "Point", "coordinates": [ -289871.415163298370317, 6705820.759187515825033 ] } },
{ "type": "Feature", "properties": { "fid": 21, "code": "A15", "type": "Apple", "variety": "Beauty of Bath", "accuracy": "good", "notes": "Variety confirmed by genotyping by Bristol University June 2020", "var_label": "Beauty of Bath", "rhs_link": "https://www.rhs.org.uk/Plants/55360/i-Malus-domestica-i-Beauty-of-Bath-(D)/Details", "auxiliary_storage_labeling_positionx": null, "auxiliary_storage_labeling_positiony": null, "crown_radius": 0.5 }, "geometry": { "type": "Point", "coordinates": [ -289876.666041500866413, 6705818.76164008770138 ] } },
{ "type": "Feature", "properties": { "fid": 22, "code": "P3", "type": "Pear", "variety": "Gorham", "accuracy": "good", "notes": null, "var_label": "Gorham", "rhs_link": "https://www.rhs.org.uk/Plants/54649/i-Pyrus-communis-i-Gorham-(D)/Details", "auxiliary_storage_labeling_positionx": null, "auxiliary_storage_labeling_positiony": null, "crown_radius": 1.2 }, "geometry": { "type": "Point", "coordinates": [ -289858.764794081973378, 6705844.595388093031943 ] } },
{ "type": "Feature", "properties": { "fid": 23, "code": "P1", "type": "Pear", "variety": "Beurré Hardy", "accuracy": "good", "notes": null, "var_label": "Beurré Hardy", "rhs_link": "https://www.rhs.org.uk/Plants/51198/i-Pyrus-communis-i-Beurre-Hardy-(D)/Details", "auxiliary_storage_labeling_positionx": null, "auxiliary_storage_labeling_positiony": null, "crown_radius": 1.3 }, "geometry": { "type": "Point", "coordinates": [ -289883.978204763960093, 6705817.561458099633455 ] } },
{ "type": "Feature", "properties": { "fid": 24, "code": "P5", "type": "Pear", "variety": "Concorde", "accuracy": "good", "notes": null, "var_label": "Concorde", "rhs_link": "https://www.rhs.org.uk/Plants/61972/i-Pyrus-communis-i-Concorde-(D)/Details", "auxiliary_storage_labeling_positionx": null, "auxiliary_storage_labeling_positiony": null, "crown_radius": 0.75 }, "geometry": { "type": "Point", "coordinates": [ -289864.354190825019032, 6705805.178160771727562 ] } },
{ "type": "Feature", "properties": { "fid": 25, "code": "P6", "type": "Pear", "variety": "Williams' Bon Chrétien", "accuracy": "good", "notes": null, "var_label": "Williams", "rhs_link": "https://www.rhs.org.uk/Plants/81695/i-Pyrus-communis-i-Williams-Bon-Chretien-(D-C)/Details", "auxiliary_storage_labeling_positionx": null, "auxiliary_storage_labeling_positiony": null, "crown_radius": 1.0 }, "geometry": { "type": "Point", "coordinates": [ -289856.181145605398342, 6705811.747866162098944 ] } },
{ "type": "Feature", "properties": { "fid": 26, "code": "Q1", "type": "Quince", "variety": "Lusitanica", "accuracy": "good", "notes": "AKA Portugal", "var_label": "Lusitanica", "rhs_link": "https://www.rhs.org.uk/Plants/121648/i-Cydonia-oblonga-i-Lusitanica-(F)/Details", "auxiliary_storage_labeling_positionx": null, "auxiliary_storage_labeling_positiony": null, "crown_radius": 1.7 }, "geometry": { "type": "Point", "coordinates": [ -289850.921223928744439, 6705813.016928728669882 ] } },
{ "type": "Feature", "properties": { "fid": 27, "code": "Ga1", "type": "Greengage", "variety": "Ouillins Gage Pixy", "accuracy": "good", "notes": null, "var_label": "Ouillins", "rhs_link": "https://www.rhs.org.uk/plants/47582/Prunus-domestica-Oullins-Gage-(C-D)/Details", "auxiliary_storage_labeling_positionx": null, "auxiliary_storage_labeling_positiony": null, "crown_radius": 0.5 }, "geometry": { "type": "Point", "coordinates": [ -289885.111897817288991, 6705822.215781749226153 ] } },
{ "type": "Feature", "properties": { "fid": 28, "code": "Ga2", "type": "Greengage", "variety": "Cambridge Gage", "accuracy": "good", "notes": null, "var_label": "Cambridge", "rhs_link": "https://www.rhs.org.uk/plants/77189/Prunus-domestica-Cambridge-Gage-(D)/Details", "auxiliary_storage_labeling_positionx": null, "auxiliary_storage_labeling_positiony": null, "crown_radius": 1.0 }, "geometry": { "type": "Point", "coordinates": [ -289867.894478042318951, 6705832.676302582956851 ] } },
{ "type": "Feature", "properties": { "fid": 29, "code": "Pm4", "type": "Plum", "variety": "Pershore", "accuracy": "good", "notes": null, "var_label": null, "rhs_link": null, "auxiliary_storage_labeling_positionx": null, "auxiliary_storage_labeling_positiony": null, "crown_radius": 1.0 }, "geometry": { "type": "Point", "coordinates": [ -289884.032225684495643, 6705844.931991833262146 ] } },
{ "type": "Feature", "properties": { "fid": 30, "code": "D2", "type": "Damson", "variety": null, "accuracy": "good", "notes": "Fruit is clearly damson, despite tree having a metal tag saying \"Plum7\"", "var_label": null, "rhs_link": null, "auxiliary_storage_labeling_positionx": null, "auxiliary_storage_labeling_positiony": null, "crown_radius": 1.5 }, "geometry": { "type": "Point", "coordinates": [ -289863.879600063490216, 6705841.035007468424737 ] } },
{ "type": "Feature", "properties": { "fid": 31, "code": "Pm6", "type": "Plum", "variety": "Pershore", "accuracy": "good", "notes": null, "var_label": null, "rhs_link": null, "auxiliary_storage_labeling_positionx": null, "auxiliary_storage_labeling_positiony": null, "crown_radius": 1.0 }, "geometry": { "type": "Point", "coordinates": [ -289884.361337959184311, 6705850.747273345477879 ] } },
{ "type": "Feature", "properties": { "fid": 32, "code": "Pm7", "type": "Plum", "variety": "Pershore", "accuracy": "good", "notes": null, "var_label": null, "rhs_link": null, "auxiliary_storage_labeling_positionx": null, "auxiliary_storage_labeling_positiony": null, "crown_radius": 1.0 }, "geometry": { "type": "Point", "coordinates": [ -289876.559657957288437, 6705831.048939382657409 ] } },
{ "type": "Feature", "properties": { "fid": 33, "code": "Pm8", "type": "Plum", "variety": "Pershore", "accuracy": "good", "notes": null, "var_label": null, "rhs_link": null, "auxiliary_storage_labeling_positionx": null, "auxiliary_storage_labeling_positiony": null, "crown_radius": 1.0 }, "geometry": { "type": "Point", "coordinates": [ -289877.623493394174147, 6705833.442569115199149 ] } },
{ "type": "Feature", "properties": { "fid": 34, "code": "Pm9", "type": "Plum", "variety": "Pershore", "accuracy": "good", "notes": null, "var_label": null, "rhs_link": null, "auxiliary_storage_labeling_positionx": null, "auxiliary_storage_labeling_positiony": null, "crown_radius": 1.0 }, "geometry": { "type": "Point", "coordinates": [ -289884.272464874607977, 6705832.112774819135666 ] } },
{ "type": "Feature", "properties": { "fid": 35, "code": "Pm10", "type": "Plum", "variety": "Pershore", "accuracy": "good", "notes": "Assume variety actually 'Purple Pershore' as 'Pershore' is usually a yellow plum: https://www.rhs.org.uk/Plants/49660/i-Prunus-domestica-i-Pershore-(C)/Details", "var_label": null, "rhs_link": "https://www.rhs.org.uk/Plants/70917/i-Prunus-domestica-i-Purple-Pershore-(C)/Details", "auxiliary_storage_labeling_positionx": null, "auxiliary_storage_labeling_positiony": null, "crown_radius": 1.0 }, "geometry": { "type": "Point", "coordinates": [ -289887.494951177272014, 6705832.797546070069075 ] } },
{ "type": "Feature", "properties": { "fid": 36, "code": "Pm13", "type": "Plum", "variety": "Pershore", "accuracy": "good", "notes": null, "var_label": null, "rhs_link": null, "auxiliary_storage_labeling_positionx": null, "auxiliary_storage_labeling_positiony": null, "crown_radius": 1.0 }, "geometry": { "type": "Point", "coordinates": [ -289874.352753865183331, 6705804.908508594147861 ] } },
{ "type": "Feature", "properties": { "fid": 37, "code": "Pm14", "type": "Plum", "variety": "Pershore", "accuracy": "good", "notes": null, "var_label": null, "rhs_link": null, "auxiliary_storage_labeling_positionx": null, "auxiliary_storage_labeling_positiony": null, "crown_radius": 1.0 }, "geometry": { "type": "Point", "coordinates": [ -289876.027740238816477, 6705801.367930694483221 ] } },
{ "type": "Feature", "properties": { "fid": 38, "code": "Pm15", "type": "Plum", "variety": "Pershore", "accuracy": "good", "notes": null, "var_label": null, "rhs_link": null, "auxiliary_storage_labeling_positionx": null, "auxiliary_storage_labeling_positiony": null, "crown_radius": 1.0 }, "geometry": { "type": "Point", "coordinates": [ -289877.805767530866433, 6705799.937838066369295 ] } },
{ "type": "Feature", "properties": { "fid": 39, "code": "Pm16", "type": "Plum", "variety": "Pershore", "accuracy": "good", "notes": null, "var_label": null, "rhs_link": null, "auxiliary_storage_labeling_positionx": null, "auxiliary_storage_labeling_positiony": null, "crown_radius": 1.0 }, "geometry": { "type": "Point", "coordinates": [ -289873.200782201718539, 6705800.800735055468976 ] } },
{ "type": "Feature", "properties": { "fid": 40, "code": "Pm17", "type": "Plum", "variety": "Pershore", "accuracy": "good", "notes": null, "var_label": null, "rhs_link": null, "auxiliary_storage_labeling_positionx": null, "auxiliary_storage_labeling_positiony": null, "crown_radius": 1.0 }, "geometry": { "type": "Point", "coordinates": [ -289869.389980723441113, 6705801.785670739598572 ] } },
{ "type": "Feature", "properties": { "fid": 41, "code": "Pm19", "type": "Plum", "variety": "Pershore", "accuracy": "good", "notes": null, "var_label": null, "rhs_link": null, "auxiliary_storage_labeling_positionx": null, "auxiliary_storage_labeling_positiony": null, "crown_radius": 1.0 }, "geometry": { "type": "Point", "coordinates": [ -289870.966727784252726, 6705799.949666705913842 ] } },
{ "type": "Feature", "properties": { "fid": 42, "code": "Pm20", "type": "Plum", "variety": "Pershore", "accuracy": "good", "notes": null, "var_label": null, "rhs_link": null, "auxiliary_storage_labeling_positionx": null, "auxiliary_storage_labeling_positiony": null, "crown_radius": 1.0 }, "geometry": { "type": "Point", "coordinates": [ -289871.764604361902457, 6705797.768804060295224 ] } },
{ "type": "Feature", "properties": { "fid": 43, "code": "Cp1", "type": "Cherry Plum", "variety": null, "accuracy": "good", "notes": null, "var_label": null, "rhs_link": null, "auxiliary_storage_labeling_positionx": null, "auxiliary_storage_labeling_positiony": null, "crown_radius": 1.5 }, "geometry": { "type": "Point", "coordinates": [ -289882.978219812270254, 6705805.073778225108981 ] } },
{ "type": "Feature", "properties": { "fid": 44, "code": "Me1", "type": "Medlar", "variety": null, "accuracy": "good", "notes": null, "var_label": null, "rhs_link": null, "auxiliary_storage_labeling_positionx": null, "auxiliary_storage_labeling_positiony": null, "crown_radius": 1.0 }, "geometry": { "type": "Point", "coordinates": [ -289877.144767447549384, 6705803.655176883563399 ] } },
{ "type": "Feature", "properties": { "fid": 45, "code": "Me2", "type": "Medlar", "variety": null, "accuracy": "good", "notes": null, "var_label": null, "rhs_link": null, "auxiliary_storage_labeling_positionx": null, "auxiliary_storage_labeling_positiony": null, "crown_radius": 1.5 }, "geometry": { "type": "Point", "coordinates": [ -289869.312579400488175, 6705811.401110704056919 ] } },
{ "type": "Feature", "properties": { "fid": 46, "code": "Ch2", "type": "Cherry", "variety": "Lapins Cherokee Gisela 5", "accuracy": "good", "notes": "AKA Lapins. Rootstock: Gisela 5. A gift from Jerry (in 2017?)", "var_label": "Lapins", "rhs_link": "https://www.rhs.org.uk/Plants/77629/i-Prunus-avium-i-Lapins-(F)/Details", "auxiliary_storage_labeling_positionx": null, "auxiliary_storage_labeling_positiony": null, "crown_radius": 0.75 }, "geometry": { "type": "Point", "coordinates": [ -289879.857547811523546, 6705848.336265232414007 ] } },
{ "type": "Feature", "properties": { "fid": 47, "code": "Ch1", "type": "Cherry", "variety": "Lapins Cherokee Gisela 5", "accuracy": "good", "notes": "AKA Lapins. Rootstock: Gisela 5. A gift from Jerry (in 2017?)", "var_label": "Lapins", "rhs_link": "https://www.rhs.org.uk/Plants/77629/i-Prunus-avium-i-Lapins-(F)/Details", "auxiliary_storage_labeling_positionx": null, "auxiliary_storage_labeling_positiony": null, "crown_radius": 0.75 }, "geometry": { "type": "Point", "coordinates": [ -289878.049027568835299, 6705849.559675985015929 ] } },
{ "type": "Feature", "properties": { "fid": 48, "code": "D1", "type": "Damson", "variety": null, "accuracy": "good", "notes": null, "var_label": null, "rhs_link": null, "auxiliary_storage_labeling_positionx": null, "auxiliary_storage_labeling_positiony": null, "crown_radius": 1.0 }, "geometry": { "type": "Point", "coordinates": [ -289862.33423967519775, 6705833.122692050412297 ] } },
{ "type": "Feature", "properties": { "fid": 49, "code": "Mu1", "type": "Mulberry", "variety": null, "accuracy": "good", "notes": null, "var_label": null, "rhs_link": null, "auxiliary_storage_labeling_positionx": null, "auxiliary_storage_labeling_positiony": null, "crown_radius": 1.0 }, "geometry": { "type": "Point", "coordinates": [ -289865.389385870133992, 6705829.453186227940023 ] } },
{ "type": "Feature", "properties": { "fid": 50, "code": "F1", "type": "Fig", "variety": null, "accuracy": "good", "notes": null, "var_label": null, "rhs_link": null, "auxiliary_storage_labeling_positionx": null, "auxiliary_storage_labeling_positiony": null, "crown_radius": 1.0 }, "geometry": { "type": "Point", "coordinates": [ -289864.839627495326567, 6705872.077371972613037 ] } },
{ "type": "Feature", "properties": { "fid": 51, "code": "Ad1", "type": "Almond", "variety": null, "accuracy": "good", "notes": null, "var_label": null, "rhs_link": null, "auxiliary_storage_labeling_positionx": null, "auxiliary_storage_labeling_positiony": null, "crown_radius": 0.75 }, "geometry": { "type": "Point", "coordinates": [ -289873.510084424167871, 6705859.234543520957232 ] } },
{ "type": "Feature", "properties": { "fid": 52, "code": "A16", "type": "Apple", "variety": null, "accuracy": "legacy", "notes": "Genotyping by Bristol University in Nov 2020 did not match anything on their database. (This was the result of an early MRCO grafting workshop 2008-2011).", "var_label": null, "rhs_link": null, "auxiliary_storage_labeling_positionx": null, "auxiliary_storage_labeling_positiony": null, "crown_radius": 1.0 }, "geometry": { "type": "Point", "coordinates": [ -289870.070261792396195, 6705859.772496177814901 ] } },
{ "type": "Feature", "properties": { "fid": 53, "code": "Q2", "type": "Quince", "variety": "Champion", "accuracy": "trellis", "notes": "Fan (on wires) - planted January 2022 \"Pick late October. Use October/December\"", "var_label": "Champion", "rhs_link": "https://www.rhs.org.uk/plants/73354/i-cydonia-oblonga-i-champion-(f)/details", "auxiliary_storage_labeling_positionx": -289898.53261450701, "auxiliary_storage_labeling_positiony": 6705845.5589598026, "crown_radius": 0.25 }, "geometry": { "type": "Point", "coordinates": [ -289896.000026284775231, 6705838.278745338320732 ] } },
{ "type": "Feature", "properties": { "fid": 54, "code": "P7", "type": "Pear", "variety": "Pitmaston Duchess", "accuracy": "trellis", "notes": "Cordon - planted January 2022. \"both a dessert and cooking pear. Pollination group 4 and is a triploid. Any non-triploid pear in flowering group 3, 4 or 5 will pollinate it\"", "var_label": "Pitmaston Duchess", "rhs_link": "https://www.rhs.org.uk/plants/171636/pyrus-communis-red-sensation-bartlett-(d-c)/details", "auxiliary_storage_labeling_positionx": -289902.42138557596, "auxiliary_storage_labeling_positiony": 6705839.8080364149, "crown_radius": 0.15 }, "geometry": { "type": "Point", "coordinates": [ -289897.119241812441032, 6705837.385651989839971 ] } },
{ "type": "Feature", "properties": { "fid": 55, "code": "P8", "type": "Pear", "variety": "Sensation", "accuracy": "trellis", "notes": "Cordon - planted January 2022. A red-skinned sport of 'Williams' Bon Chrétien'. Partially self-fertile; pollination group 3", "var_label": "Sensation", "rhs_link": "https://www.rhs.org.uk/plants/171636/pyrus-communis-red-sensation-bartlett-(d-c)/details", "auxiliary_storage_labeling_positionx": -289894.88135474053, "auxiliary_storage_labeling_positiony": 6705844.9257163629, "crown_radius": 0.15 }, "geometry": { "type": "Point", "coordinates": [ -289894.792491995904129, 6705839.245031301863492 ] } },
{ "type": "Feature", "properties": { "fid": 56, "code": "A17", "type": "Apple", "variety": "Discovery", "accuracy": "legacy", "notes": "Planted in February 2022 (from Tim Foster)", "var_label": "Discovery", "rhs_link": "https://www.rhs.org.uk/plants/70631/malus-domestica-discovery-(d)/details", "auxiliary_storage_labeling_positionx": null, "auxiliary_storage_labeling_positiony": null, "crown_radius": 0.25 }, "geometry": { "type": "Point", "coordinates": [ -289839.593179646530189, 6705800.588773598894477 ] } }
]
}
