{
"type": "FeatureCollection",
"name": "Other trees or shrubs",
"crs": { "type": "name", "properties": { "name": "urn:ogc:def:crs:EPSG::3857" } },
"features": [
{ "type": "Feature", "properties": { "fid": 1, "type": "Dogwood", "code": "do", "accuracy": "good", "notes": null }, "geometry": { "type": "Point", "coordinates": [ -289860.065370921452995, 6705821.479171695187688 ] } },
{ "type": "Feature", "properties": { "fid": 2, "type": "Hazel", "code": "hz", "accuracy": "good", "notes": null }, "geometry": { "type": "Point", "coordinates": [ -289863.104287858004682, 6705874.484504299238324 ] } },
{ "type": "Feature", "properties": { "fid": 3, "type": "Hazel", "code": "hz", "accuracy": "good", "notes": null }, "geometry": { "type": "Point", "coordinates": [ -289862.701848063443322, 6705873.679624710232019 ] } },
{ "type": "Feature", "properties": { "fid": 4, "type": "Hazel", "code": "hz", "accuracy": "good", "notes": null }, "geometry": { "type": "Point", "coordinates": [ -289862.01195127266692, 6705873.047219319269061 ] } },
{ "type": "Feature", "properties": { "fid": 5, "type": "Hazel", "code": "hz", "accuracy": "good", "notes": null }, "geometry": { "type": "Point", "coordinates": [ -289863.736693249433301, 6705875.001926893368363 ] } },
{ "type": "Feature", "properties": { "fid": 6, "type": "Hawthorn grafted with Aronia berries", "code": "ha", "accuracy": "good", "notes": "Hawthorn grafted with Aronia berries" }, "geometry": { "type": "Point", "coordinates": [ -289872.158740020706318, 6705854.505356637760997 ] } },
{ "type": "Feature", "properties": { "fid": 7, "type": "Elaeagnus", "code": "eg", "accuracy": "legacy", "notes": null }, "geometry": { "type": "Point", "coordinates": [ -289872.105340970156249, 6705834.4816609993577 ] } },
{ "type": "Feature", "properties": { "fid": 8, "type": "Elaeagnus", "code": "eg", "accuracy": "legacy", "notes": null }, "geometry": { "type": "Point", "coordinates": [ -289874.47447819809895, 6705836.994601110927761 ] } },
{ "type": "Feature", "properties": { "fid": 9, "type": "Elaeagnus", "code": "eg", "accuracy": "legacy", "notes": null }, "geometry": { "type": "Point", "coordinates": [ -289877.606716995767783, 6705839.035620170645416 ] } },
{ "type": "Feature", "properties": { "fid": 10, "type": "Elaeagnus", "code": "eg", "accuracy": "legacy", "notes": null }, "geometry": { "type": "Point", "coordinates": [ -289878.205759481003042, 6705842.484136049635708 ] } },
{ "type": "Feature", "properties": { "fid": 11, "type": "Elaeagnus", "code": "eg", "accuracy": "legacy", "notes": null }, "geometry": { "type": "Point", "coordinates": [ -289870.292201086238492, 6705843.859159889630973 ] } },
{ "type": "Feature", "properties": { "fid": 12, "type": "Elaeagnus", "code": "eg", "accuracy": "legacy", "notes": null }, "geometry": { "type": "Point", "coordinates": [ -289869.416351913358085, 6705840.588707249611616 ] } },
{ "type": "Feature", "properties": { "fid": 13, "type": "Elaeagnus", "code": "eg", "accuracy": "legacy", "notes": null }, "geometry": { "type": "Point", "coordinates": [ -289872.303652883972973, 6705840.827388813719153 ] } },
{ "type": "Feature", "properties": { "fid": 14, "type": "Elaeagnus", "code": "eg", "accuracy": "legacy", "notes": null }, "geometry": { "type": "Point", "coordinates": [ -289871.204038805910386, 6705837.726957889273763 ] } },
{ "type": "Feature", "properties": { "fid": 15, "type": "Elaeagnus", "code": "eg", "accuracy": "legacy", "notes": null }, "geometry": { "type": "Point", "coordinates": [ -289875.046417650824878, 6705841.798244970850646 ] } },
{ "type": "Feature", "properties": { "fid": 16, "type": "Holly", "code": "ho", "accuracy": "good", "notes": null }, "geometry": { "type": "Point", "coordinates": [ -289844.38893584680045, 6705824.392032534815371 ] } },
{ "type": "Feature", "properties": { "fid": 17, "type": "Blackthorn (Sloe)", "code": "sl", "accuracy": "good", "notes": null }, "geometry": { "type": "Point", "coordinates": [ -289850.226214431051631, 6705820.442589025944471 ] } },
{ "type": "Feature", "properties": { "fid": 18, "type": "Blackthorn (Sloe)", "code": "sl", "accuracy": "good", "notes": null }, "geometry": { "type": "Point", "coordinates": [ -289853.330749989370815, 6705821.189977215602994 ] } },
{ "type": "Feature", "properties": { "fid": 19, "type": "Blackthorn (Sloe)", "code": "sl", "accuracy": "good", "notes": null }, "geometry": { "type": "Point", "coordinates": [ -289855.572914559219498, 6705822.454787998460233 ] } },
{ "type": "Feature", "properties": { "fid": 20, "type": "Hazel", "code": "hz", "accuracy": "good", "notes": null }, "geometry": { "type": "Point", "coordinates": [ -289862.362410561123397, 6705825.831886473111808 ] } },
{ "type": "Feature", "properties": { "fid": 21, "type": "Elm", "code": "el", "accuracy": "vague", "notes": "To be felled end 2018" }, "geometry": { "type": "Point", "coordinates": [ -289866.95621160621522, 6705807.104584404267371 ] } },
{ "type": "Feature", "properties": { "fid": 22, "type": "Oak", "code": "oa", "accuracy": "good", "notes": null }, "geometry": { "type": "Point", "coordinates": [ -289875.810586184670683, 6705777.439927418716252 ] } },
{ "type": "Feature", "properties": { "fid": 23, "type": "Willow", "code": "wi", "accuracy": "vague", "notes": "(Need to confirm willow)" }, "geometry": { "type": "Point", "coordinates": [ -289833.711211254936643, 6705791.817456445656717 ] } },
{ "type": "Feature", "properties": { "fid": 24, "type": "Elm", "code": "el", "accuracy": "vague", "notes": "To be felled end 2018" }, "geometry": { "type": "Point", "coordinates": [ -289866.093840617802925, 6705806.299704816192389 ] } },
{ "type": "Feature", "properties": { "fid": 25, "type": "Oak", "code": "oa", "accuracy": "good", "notes": "T8: Permission to prune by 30% given Nov 2017" }, "geometry": { "type": "Point", "coordinates": [ -289852.817861833435018, 6705827.227276798337698 ] } },
{ "type": "Feature", "properties": { "fid": 26, "type": "Field Maple", "code": "ma", "accuracy": "good", "notes": "T1: permission to prune/hedgelay granted Nov 2018" }, "geometry": { "type": "Point", "coordinates": [ -289860.486460117273964, 6705861.512475600466132 ] } },
{ "type": "Feature", "properties": { "fid": 27, "type": "Field Maple", "code": "ma", "accuracy": "good", "notes": "T2: permission to prune/hedgelay granted Nov 2018" }, "geometry": { "type": "Point", "coordinates": [ -289859.923988807713613, 6705860.520929984748363 ] } },
{ "type": "Feature", "properties": { "fid": 28, "type": "Field Maple", "code": "ma", "accuracy": "good", "notes": "T3: permission to prune/hedgelay granted Nov 2018" }, "geometry": { "type": "Point", "coordinates": [ -289855.987861280562356, 6705855.120176827535033 ] } },
{ "type": "Feature", "properties": { "fid": 29, "type": "Field Maple", "code": "ma", "accuracy": "good", "notes": "T4: permission to prune/hedgelay granted Nov 2018" }, "geometry": { "type": "Point", "coordinates": [ -289852.042335383652244, 6705845.645307764410973 ] } },
{ "type": "Feature", "properties": { "fid": 30, "type": "Wild Plum", "code": "wp", "accuracy": "good", "notes": null }, "geometry": { "type": "Point", "coordinates": [ -289850.266010041232221, 6705840.006864901632071 ] } },
{ "type": "Feature", "properties": { "fid": 31, "type": "Wild Plum", "code": "wp", "accuracy": "good", "notes": "T6: permission to prune/hedgelay granted Nov 2018" }, "geometry": { "type": "Point", "coordinates": [ -289848.420271280920133, 6705835.050551204942167 ] } },
{ "type": "Feature", "properties": { "fid": 32, "type": "Wild Plum", "code": "wp", "accuracy": "good", "notes": "T7: permission to prune/hedgelay granted Nov 2018" }, "geometry": { "type": "Point", "coordinates": [ -289846.139341219095513, 6705828.908405836671591 ] } },
{ "type": "Feature", "properties": { "fid": 33, "type": "?", "code": "?", "accuracy": "good", "notes": "Unknown tall tree" }, "geometry": { "type": "Point", "coordinates": [ -289868.579489848285448, 6705781.424741148017347 ] } },
{ "type": "Feature", "properties": { "fid": 34, "type": "Wild Plum", "code": "wp", "accuracy": "good", "notes": "T5: permission to prune/hedgelay granted Nov 2018" }, "geometry": { "type": "Point", "coordinates": [ -289851.684677421930246, 6705844.262867043726146 ] } },
{ "type": "Feature", "properties": { "fid": 35, "type": "Willow", "code": "wi", "accuracy": "vague", "notes": "(Need to confirm willow)" }, "geometry": { "type": "Point", "coordinates": [ -289844.540372260962613, 6705790.304211240261793 ] } },
{ "type": "Feature", "properties": { "fid": 36, "type": "Willow", "code": "wi", "accuracy": "vague", "notes": "(Need to confirm willow)" }, "geometry": { "type": "Point", "coordinates": [ -289842.459660102555063, 6705790.682522540912032 ] } },
{ "type": "Feature", "properties": { "fid": 37, "type": "Willow", "code": "wi", "accuracy": "vague", "notes": "(Need to confirm willow)" }, "geometry": { "type": "Point", "coordinates": [ -289847.519573760451749, 6705790.115055589005351 ] } },
{ "type": "Feature", "properties": { "fid": 38, "type": "Elm", "code": "el", "accuracy": "good", "notes": "Dead - needs to be felled" }, "geometry": { "type": "Point", "coordinates": [ -289853.478871489525773, 6705822.473481028340757 ] } },
{ "type": "Feature", "properties": { "fid": 39, "type": "Elaeagnus", "code": "eg", "accuracy": "legacy", "notes": "Variety 'Sweet scarlet'" }, "geometry": { "type": "Point", "coordinates": [ -289894.144940153753851, 6705840.592775410972536 ] } },
{ "type": "Feature", "properties": { "fid": 40, "type": "Elm", "code": "el", "accuracy": "good", "notes": "Dead - needs to be felled" }, "geometry": { "type": "Point", "coordinates": [ -289855.410533310670871, 6705825.726806200109422 ] } },
{ "type": "Feature", "properties": { "fid": 41, "type": "Hazel", "code": "hz", "accuracy": "good", "notes": null }, "geometry": { "type": "Point", "coordinates": [ -289876.11150675569661, 6705854.386042944155633 ] } }
]
}
