{
"type": "FeatureCollection",
"name": "Soft fruits",
"crs": { "type": "name", "properties": { "name": "urn:ogc:def:crs:EPSG::3857" } },
"features": [
{ "type": "Feature", "properties": { "fid": 1, "type": "Red Currant", "label": "rc", "accuracy": "good" }, "geometry": { "type": "Point", "coordinates": [ -289848.681051825347822, 6705808.835342327132821 ] } },
{ "type": "Feature", "properties": { "fid": 2, "type": "Raspberry", "label": "r", "accuracy": "legacy" }, "geometry": { "type": "Point", "coordinates": [ -289891.331636210379656, 6705840.266696478240192 ] } },
{ "type": "Feature", "properties": { "fid": 3, "type": "Raspberry", "label": "r", "accuracy": "legacy" }, "geometry": { "type": "Point", "coordinates": [ -289890.508636831713375, 6705838.763828055001795 ] } },
{ "type": "Feature", "properties": { "fid": 4, "type": "Raspberry", "label": "r", "accuracy": "legacy" }, "geometry": { "type": "Point", "coordinates": [ -289890.22237617947394, 6705840.016218405216932 ] } },
{ "type": "Feature", "properties": { "fid": 5, "type": "Raspberry", "label": "r", "accuracy": "legacy" }, "geometry": { "type": "Point", "coordinates": [ -289890.531799267278984, 6705840.971805823966861 ] } },
{ "type": "Feature", "properties": { "fid": 6, "type": "Raspberry", "label": "r", "accuracy": "legacy" }, "geometry": { "type": "Point", "coordinates": [ -289888.862638074380811, 6705839.908870659768581 ] } },
{ "type": "Feature", "properties": { "fid": 7, "type": "Blackcurrant", "label": "bc", "accuracy": "legacy" }, "geometry": { "type": "Point", "coordinates": [ -289874.265251133823767, 6705819.476181970909238 ] } },
{ "type": "Feature", "properties": { "fid": 8, "type": "Blueberry", "label": "bl", "accuracy": "legacy" }, "geometry": { "type": "Point", "coordinates": [ -289880.956644574995153, 6705845.938322232104838 ] } },
{ "type": "Feature", "properties": { "fid": 9, "type": "Blackberry (Brambles)", "label": "b", "accuracy": "legacy" }, "geometry": { "type": "Point", "coordinates": [ -289870.966523163486272, 6705847.951314234174788 ] } },
{ "type": "Feature", "properties": { "fid": 10, "type": "Blackcurrant", "label": "bc", "accuracy": "legacy" }, "geometry": { "type": "Point", "coordinates": [ -289871.94786822819151, 6705823.663042839616537 ] } },
{ "type": "Feature", "properties": { "fid": 11, "type": "Gooseberry", "label": "g", "accuracy": "legacy" }, "geometry": { "type": "Point", "coordinates": [ -289875.539623797987588, 6705813.165437752380967 ] } },
{ "type": "Feature", "properties": { "fid": 12, "type": "Jostaberry", "label": "jo", "accuracy": "good" }, "geometry": { "type": "Point", "coordinates": [ -289863.887487354862969, 6705830.492155215702951 ] } },
{ "type": "Feature", "properties": { "fid": 13, "type": "June berry", "label": "ju", "accuracy": "legacy" }, "geometry": { "type": "Point", "coordinates": [ -289888.106437773618381, 6705832.634727228432894 ] } },
{ "type": "Feature", "properties": { "fid": 14, "type": "Loganberry", "label": "lb", "accuracy": "legacy" }, "geometry": { "type": "Point", "coordinates": [ -289864.149912126187701, 6705870.149456715211272 ] } },
{ "type": "Feature", "properties": { "fid": 15, "type": "Tayberry", "label": "tb", "accuracy": "legacy" }, "geometry": { "type": "Point", "coordinates": [ -289863.230049738602247, 6705870.759951423853636 ] } },
{ "type": "Feature", "properties": { "fid": 16, "type": "White currant", "label": "wc", "accuracy": "legacy" }, "geometry": { "type": "Point", "coordinates": [ -289872.377596840553451, 6705817.890375377610326 ] } },
{ "type": "Feature", "properties": { "fid": 17, "type": "Worcester berry", "label": "wo", "accuracy": "good" }, "geometry": { "type": "Point", "coordinates": [ -289862.881968417786993, 6705832.041844823397696 ] } },
{ "type": "Feature", "properties": { "fid": 18, "type": "Blackcurrant", "label": "bc", "accuracy": "good" }, "geometry": { "type": "Point", "coordinates": [ -289866.791369234269951, 6705852.073805332183838 ] } },
{ "type": "Feature", "properties": { "fid": 19, "type": "Blueberry", "label": "bl", "accuracy": "good" }, "geometry": { "type": "Point", "coordinates": [ -289865.376475384400692, 6705853.067255736328661 ] } },
{ "type": "Feature", "properties": { "fid": 20, "type": "Blueberry", "label": "bl", "accuracy": "good" }, "geometry": { "type": "Point", "coordinates": [ -289864.169156000600196, 6705850.020211576484144 ] } },
{ "type": "Feature", "properties": { "fid": 21, "type": "Blueberry", "label": "bl", "accuracy": "legacy" }, "geometry": { "type": "Point", "coordinates": [ -289881.589049966423772, 6705845.305916840210557 ] } },
{ "type": "Feature", "properties": { "fid": 22, "type": "Red Currant", "label": "rc", "accuracy": "good" }, "geometry": { "type": "Point", "coordinates": [ -289863.96585758542642, 6705853.846514601260424 ] } },
{ "type": "Feature", "properties": { "fid": 23, "type": "Red Currant", "label": "rc", "accuracy": "good" }, "geometry": { "type": "Point", "coordinates": [ -289862.701046802394558, 6705854.478919992223382 ] } },
{ "type": "Feature", "properties": { "fid": 24, "type": "Red Currant", "label": "rc", "accuracy": "good" }, "geometry": { "type": "Point", "coordinates": [ -289862.98096037923824, 6705850.790231122635305 ] } },
{ "type": "Feature", "properties": { "fid": 25, "type": "Red Currant", "label": "rc", "accuracy": "good" }, "geometry": { "type": "Point", "coordinates": [ -289861.831132394727319, 6705851.365145114250481 ] } },
{ "type": "Feature", "properties": { "fid": 26, "type": "Red Currant", "label": "rc", "accuracy": "good" }, "geometry": { "type": "Point", "coordinates": [ -289860.738795809389558, 6705852.112533304840326 ] } },
{ "type": "Feature", "properties": { "fid": 27, "type": "Currant", "label": "rc", "accuracy": "good" }, "geometry": { "type": "Point", "coordinates": [ -289861.658658197033219, 6705855.44703445956111 ] } },
{ "type": "Feature", "properties": { "fid": 28, "type": "Gooseberry", "label": "g", "accuracy": "good" }, "geometry": { "type": "Point", "coordinates": [ -289860.220100093109068, 6705855.054324863478541 ] } },
{ "type": "Feature", "properties": { "fid": 29, "type": "Gooseberry", "label": "g", "accuracy": "good" }, "geometry": { "type": "Point", "coordinates": [ -289859.614506212063134, 6705853.524400009773672 ] } },
{ "type": "Feature", "properties": { "fid": 30, "type": "Strawberry", "label": "s", "accuracy": "legacy" }, "geometry": { "type": "Point", "coordinates": [ -289880.27304229704896, 6705846.287619004026055 ] } },
{ "type": "Feature", "properties": { "fid": 31, "type": "Blackberry (Brambles)", "label": "b", "accuracy": "legacy" }, "geometry": { "type": "Point", "coordinates": [ -289893.534431756183039, 6705842.003488808870316 ] } },
{ "type": "Feature", "properties": { "fid": 32, "type": "Blackberry (Brambles)", "label": "b", "accuracy": "legacy" }, "geometry": { "type": "Point", "coordinates": [ -289891.982163977052551, 6705844.073179182596505 ] } },
{ "type": "Feature", "properties": { "fid": 33, "type": "Blackberry (Brambles)", "label": "b", "accuracy": "legacy" }, "geometry": { "type": "Point", "coordinates": [ -289889.73999940714566, 6705845.91290395706892 ] } },
{ "type": "Feature", "properties": { "fid": 34, "type": "Raspberry", "label": "r", "accuracy": "legacy" }, "geometry": { "type": "Point", "coordinates": [ -289888.977620872843545, 6705843.070897616446018 ] } },
{ "type": "Feature", "properties": { "fid": 35, "type": "Raspberry", "label": "r", "accuracy": "legacy" }, "geometry": { "type": "Point", "coordinates": [ -289886.333016508433502, 6705844.680656794458628 ] } },
{ "type": "Feature", "properties": { "fid": 36, "type": "Raspberry", "label": "r", "accuracy": "legacy" }, "geometry": { "type": "Point", "coordinates": [ -289882.59607555862749, 6705846.462890170514584 ] } },
{ "type": "Feature", "properties": { "fid": 37, "type": "Raspberry", "label": "r", "accuracy": "legacy" }, "geometry": { "type": "Point", "coordinates": [ -289881.101299178728368, 6705847.670209554955363 ] } },
{ "type": "Feature", "properties": { "fid": 38, "type": "Raspberry", "label": "r", "accuracy": "legacy" }, "geometry": { "type": "Point", "coordinates": [ -289882.826041155552957, 6705852.212030094116926 ] } },
{ "type": "Feature", "properties": { "fid": 39, "type": "Raspberry", "label": "r", "accuracy": "legacy" }, "geometry": { "type": "Point", "coordinates": [ -289881.60471832746407, 6705852.914179897867143 ] } },
{ "type": "Feature", "properties": { "fid": 40, "type": "Raspberry", "label": "r", "accuracy": "legacy" }, "geometry": { "type": "Point", "coordinates": [ -289880.353910988778807, 6705854.396703264676034 ] } },
{ "type": "Feature", "properties": { "fid": 41, "type": "Raspberry", "label": "r", "accuracy": "legacy" }, "geometry": { "type": "Point", "coordinates": [ -289879.606522798771039, 6705855.086600055918097 ] } },
{ "type": "Feature", "properties": { "fid": 42, "type": "Raspberry", "label": "r", "accuracy": "legacy" }, "geometry": { "type": "Point", "coordinates": [ -289878.284220616566017, 6705856.351410838775337 ] } },
{ "type": "Feature", "properties": { "fid": 43, "type": "Blackberry (Brambles)", "label": "b", "accuracy": "legacy" }, "geometry": { "type": "Point", "coordinates": [ -289863.811378355661873, 6705873.796232582069933 ] } },
{ "type": "Feature", "properties": { "fid": 44, "type": "Blackberry (Brambles)", "label": "b", "accuracy": "legacy" }, "geometry": { "type": "Point", "coordinates": [ -289862.546567572630011, 6705872.473930399864912 ] } },
{ "type": "Feature", "properties": { "fid": 45, "type": "Gooseberry", "label": "g", "accuracy": "legacy" }, "geometry": { "type": "Point", "coordinates": [ -289878.166723857168108, 6705855.245641125366092 ] } },
{ "type": "Feature", "properties": { "fid": 46, "type": "Gooseberry", "label": "g", "accuracy": "legacy" }, "geometry": { "type": "Point", "coordinates": [ -289879.046599150868133, 6705854.156805401667953 ] } },
{ "type": "Feature", "properties": { "fid": 47, "type": "Gooseberry", "label": "g", "accuracy": "good" }, "geometry": { "type": "Point", "coordinates": [ -289867.269614461925812, 6705828.036455417051911 ] } },
{ "type": "Feature", "properties": { "fid": 48, "type": "Gooseberry", "label": "g", "accuracy": "good" }, "geometry": { "type": "Point", "coordinates": [ -289848.447307721828111, 6705811.262970285490155 ] } },
{ "type": "Feature", "properties": { "fid": 49, "type": "Blackcurrant", "label": "bc", "accuracy": "legacy" }, "geometry": { "type": "Point", "coordinates": [ -289867.001807286927942, 6705862.046073855832219 ] } },
{ "type": "Feature", "properties": { "fid": 50, "type": "Blackcurrant", "label": "bc", "accuracy": "legacy" }, "geometry": { "type": "Point", "coordinates": [ -289868.808683094568551, 6705861.453655558638275 ] } },
{ "type": "Feature", "properties": { "fid": 51, "type": "Blackcurrant", "label": "bc", "accuracy": "legacy" }, "geometry": { "type": "Point", "coordinates": [ -289870.230487008811906, 6705860.772374516353011 ] } },
{ "type": "Feature", "properties": { "fid": 52, "type": "Blackberry (Brambles)", "label": "b", "accuracy": "legacy" }, "geometry": { "type": "Point", "coordinates": [ -289860.08270843810169, 6705847.38086882699281 ] } },
{ "type": "Feature", "properties": { "fid": 53, "type": "Blackberry (Brambles)", "label": "b", "accuracy": "legacy" }, "geometry": { "type": "Point", "coordinates": [ -289869.954020902863704, 6705846.234309014864266 ] } },
{ "type": "Feature", "properties": { "fid": 54, "type": "Blackberry (Brambles)", "label": "b", "accuracy": "legacy" }, "geometry": { "type": "Point", "coordinates": [ -289875.654606596450321, 6705819.639334511011839 ] } },
{ "type": "Feature", "properties": { "fid": 55, "type": "Blackberry (Brambles)", "label": "b", "accuracy": "legacy" }, "geometry": { "type": "Point", "coordinates": [ -289875.194675402657595, 6705820.789162495173514 ] } },
{ "type": "Feature", "properties": { "fid": 56, "type": "Blackberry (Brambles)", "label": "b", "accuracy": "legacy" }, "geometry": { "type": "Point", "coordinates": [ -289860.361894402012695, 6705805.381467501632869 ] } },
{ "type": "Feature", "properties": { "fid": 57, "type": "Blackberry (Brambles)", "label": "b", "accuracy": "legacy" }, "geometry": { "type": "Point", "coordinates": [ -289859.269557816674933, 6705803.311777130700648 ] } },
{ "type": "Feature", "properties": { "fid": 58, "type": "Blackberry (Brambles)", "label": "b", "accuracy": "legacy" }, "geometry": { "type": "Point", "coordinates": [ -289860.016946006624494, 6705804.404113715514541 ] } },
{ "type": "Feature", "properties": { "fid": 59, "type": "Blackberry (Brambles)", "label": "b", "accuracy": "legacy" }, "geometry": { "type": "Point", "coordinates": [ -289862.890915761236101, 6705845.22180675342679 ] } },
{ "type": "Feature", "properties": { "fid": 60, "type": "Blackberry (Brambles)", "label": "b", "accuracy": "legacy" }, "geometry": { "type": "Point", "coordinates": [ -289865.56740042794263, 6705845.527138089761138 ] } },
{ "type": "Feature", "properties": { "fid": 61, "type": "Gooseberry", "label": "g", "accuracy": "good" }, "geometry": { "type": "Point", "coordinates": [ -289895.491061900393106, 6705836.294481142424047 ] } },
{ "type": "Feature", "properties": { "fid": 62, "type": "Currant", "label": "c", "accuracy": "good" }, "geometry": { "type": "Point", "coordinates": [ -289893.437659004761372, 6705837.63169062603265 ] } },
{ "type": "Feature", "properties": { "fid": 63, "type": "Raspberry", "label": "r", "accuracy": "legacy" }, "geometry": { "type": "Point", "coordinates": [ -289864.994955242378637, 6705828.664926034398377 ] } },
{ "type": "Feature", "properties": { "fid": 64, "type": "Raspberry", "label": "r", "accuracy": "legacy" }, "geometry": { "type": "Point", "coordinates": [ -289864.219696568092331, 6705829.133609380573034 ] } },
{ "type": "Feature", "properties": { "fid": 65, "type": "Raspberry", "label": "r", "accuracy": "legacy" }, "geometry": { "type": "Point", "coordinates": [ -289892.657070423359983, 6705842.668457822874188 ] } },
{ "type": "Feature", "properties": { "fid": 66, "type": "Raspberry", "label": "r", "accuracy": "legacy" }, "geometry": { "type": "Point", "coordinates": [ -289892.516213615483139, 6705840.149816599674523 ] } },
{ "type": "Feature", "properties": { "fid": 67, "type": "Raspberry", "label": "r", "accuracy": "legacy" }, "geometry": { "type": "Point", "coordinates": [ -289882.711058357032016, 6705844.565673997625709 ] } },
{ "type": "Feature", "properties": { "fid": 68, "type": "Raspberry", "label": "r", "accuracy": "legacy" }, "geometry": { "type": "Point", "coordinates": [ -289891.234679109009448, 6705843.416761040687561 ] } },
{ "type": "Feature", "properties": { "fid": 69, "type": "Blackcurrant", "label": "bc", "accuracy": "legacy" }, "geometry": { "type": "Point", "coordinates": [ -289877.615369759616442, 6705810.455283583141863 ] } },
{ "type": "Feature", "properties": { "fid": 70, "type": "Blackcurrant", "label": "bc", "accuracy": "legacy" }, "geometry": { "type": "Point", "coordinates": [ -289877.185059480660129, 6705809.472678505815566 ] } },
{ "type": "Feature", "properties": { "fid": 71, "type": "Blackcurrant", "label": "bc", "accuracy": "legacy" }, "geometry": { "type": "Point", "coordinates": [ -289876.007224607630633, 6705808.934387148357928 ] } },
{ "type": "Feature", "properties": { "fid": 72, "type": "Blackcurrant", "label": "bc", "accuracy": "legacy" }, "geometry": { "type": "Point", "coordinates": [ -289874.645071735605597, 6705817.758441715501249 ] } },
{ "type": "Feature", "properties": { "fid": 73, "type": "Blackcurrant", "label": "bc", "accuracy": "legacy" }, "geometry": { "type": "Point", "coordinates": [ -289877.254803893563803, 6705813.152128054760396 ] } },
{ "type": "Feature", "properties": { "fid": 74, "type": "Gooseberry", "label": "g", "accuracy": "good" }, "geometry": { "type": "Point", "coordinates": [ -289848.527418313839007, 6705813.165437752380967 ] } },
{ "type": "Feature", "properties": { "fid": 75, "type": "Gooseberry", "label": "g", "accuracy": "legacy" }, "geometry": { "type": "Point", "coordinates": [ -289874.907218406558968, 6705834.322272668592632 ] } },
{ "type": "Feature", "properties": { "fid": 76, "type": "Chinese bramble", "label": "cb", "accuracy": "good" }, "geometry": { "type": "Point", "coordinates": [ -289872.28588178177597, 6705828.91800878290087 ] } },
{ "type": "Feature", "properties": { "fid": 77, "type": "Chinese bramble", "label": "cb", "accuracy": "good" }, "geometry": { "type": "Point", "coordinates": [ -289870.596288278815337, 6705829.218571431003511 ] } },
{ "type": "Feature", "properties": { "fid": 78, "type": "Chinese bramble", "label": "cb", "accuracy": "good" }, "geometry": { "type": "Point", "coordinates": [ -289868.826860451255925, 6705830.351125283166766 ] } },
{ "type": "Feature", "properties": { "fid": 79, "type": "Chinese bramble", "label": "cb", "accuracy": "good" }, "geometry": { "type": "Point", "coordinates": [ -289873.85959217621712, 6705827.693115163594484 ] } },
{ "type": "Feature", "properties": { "fid": 80, "type": "Blackcurrant", "label": "bc", "accuracy": "legacy" }, "geometry": { "type": "Point", "coordinates": [ -289869.305014294281136, 6705858.839027013629675 ] } },
{ "type": "Feature", "properties": { "fid": 81, "type": "Blackcurrant", "label": "bc", "accuracy": "legacy" }, "geometry": { "type": "Point", "coordinates": [ -289867.681251671630889, 6705860.419301680289209 ] } },
{ "type": "Feature", "properties": { "fid": 82, "type": "Red Currant", "label": "rc", "accuracy": "legacy" }, "geometry": { "type": "Point", "coordinates": [ -289887.177837731840555, 6705817.683937319554389 ] } },
{ "type": "Feature", "properties": { "fid": 83, "type": "Red Currant", "label": "rc", "accuracy": "legacy" }, "geometry": { "type": "Point", "coordinates": [ -289886.207485667138826, 6705816.755322779528797 ] } },
{ "type": "Feature", "properties": { "fid": 84, "type": "Red Currant", "label": "rc", "accuracy": "legacy" }, "geometry": { "type": "Point", "coordinates": [ -289884.763198964297771, 6705815.480009413324296 ] } },
{ "type": "Feature", "properties": { "fid": 85, "type": "Currant", "label": "c", "accuracy": "legacy" }, "geometry": { "type": "Point", "coordinates": [ -289876.663913395372219, 6705817.387728170491755 ] } },
{ "type": "Feature", "properties": { "fid": 86, "type": "Blackcurrant", "label": "bc", "accuracy": "legacy" }, "geometry": { "type": "Point", "coordinates": [ -289873.501886437821668, 6705823.481816489249468 ] } },
{ "type": "Feature", "properties": { "fid": 87, "type": "Strawberry", "label": "s", "accuracy": "good" }, "geometry": { "type": "Point", "coordinates": [ -289895.357725369860418, 6705835.17503219936043 ] } },
{ "type": "Feature", "properties": { "fid": 88, "type": "Strawberry", "label": "s", "accuracy": "good" }, "geometry": { "type": "Point", "coordinates": [ -289892.865501754858997, 6705836.773649700917304 ] } },
{ "type": "Feature", "properties": { "fid": 89, "type": "Gooseberry", "label": "g", "accuracy": "legacy" }, "geometry": { "type": "Point", "coordinates": [ -289890.421030464873184, 6705844.678112640045583 ] } },
{ "type": "Feature", "properties": { "fid": 90, "type": "Gooseberry", "label": "g", "accuracy": "legacy" }, "geometry": { "type": "Point", "coordinates": [ -289875.432847535412293, 6705856.230269443243742 ] } },
{ "type": "Feature", "properties": { "fid": 91, "type": "Grapevine", "label": "gr", "accuracy": "legacy" }, "geometry": { "type": "Point", "coordinates": [ -289867.038674807059579, 6705871.098819052800536 ] } },
{ "type": "Feature", "properties": { "fid": 92, "type": "Grapevine", "label": "gr", "accuracy": "legacy" }, "geometry": { "type": "Point", "coordinates": [ -289869.408347997523379, 6705868.136727564036846 ] } },
{ "type": "Feature", "properties": { "fid": 93, "type": "Gooseberry", "label": "g", "accuracy": "good" }, "geometry": { "type": "Point", "coordinates": [ -289896.201963857514784, 6705835.7613046746701 ] } }
]
}
